NORAD_CAT_ID,OBJECT_NAME,OBJECT_TYPE,EPOCH,MEAN_MOTION,ECCENTRICITY,INCLINATION,RA_OF_ASC_NODE,ARG_OF_PERICENTER,MEAN_ANOMALY,BSTAR,MEAN_MOTION_DOT,MEAN_MOTION_DDOT,TLE_LINE0,TLE_LINE1,TLE_LINE2,SEMIMAJOR_AXIS,PERIOD,APOGEE,PERIGEE,DECAYED
53540.0,STARLINK-4486,PAYLOAD,2023-12-12 13:43:45,15.08838965,0.0001293,53.2172,136.7945,92.2632,267.8508,7.5052e-06,-1.68e-06,0.0,0 STARLINK-4486,1 53540U 22101P   23346.57205868 -.00000168  00000-0  75052-5 0  9992,2 53540  53.2172 136.7945 0001293  92.2632 267.8508 15.08838965 73484,6917.884,95.438,540.643,538.854,0.0
53540.0,STARLINK-4486,PAYLOAD,2023-12-12 16:54:32,15.08838941,0.0001275,53.217,136.1997,90.7378,269.376,6.3524e-06,-1.87e-06,0.0,0 STARLINK-4486,1 53540U 22101P   23346.70453874 -.00000187  00000-0  63524-5 0  9991,2 53540  53.2170 136.1997 0001275  90.7378 269.3760 15.08838941 72810,6917.884,95.438,540.631,538.867,0.0
53540.0,STARLINK-4486,PAYLOAD,2023-12-13 13:34:32,15.08839654,0.0001256,53.2168,132.3338,92.2294,267.8842,3.3601e-05,2.47e-06,0.0,0 STARLINK-4486,1 53540U 22101P   23347.56565671  .00000247  00000-0  33601-4 0  9993,2 53540  53.2168 132.3338 0001256  92.2294 267.8842 15.08839654 73634,6917.881,95.438,540.615,538.878,0.0
53540.0,STARLINK-4486,PAYLOAD,2023-12-13 16:45:18,15.08841639,0.0001296,53.2172,131.7393,92.7393,267.3747,4.6499e-05,4.52e-06,0.0,0 STARLINK-4486,1 53540U 22101P   23347.69813511  .00000452  00000-0  46499-4 0  9993,2 53540  53.2172 131.7393 0001296  92.7393 267.3747 15.08841639 73659,6917.875,95.437,540.637,538.844,0.0
53540.0,STARLINK-4486,PAYLOAD,2023-12-14 13:25:20,15.08835786,0.0001261,53.2172,127.8722,93.4138,266.6998,1.0141e-05,-1.26e-06,0.0,0 STARLINK-4486,1 53540U 22101P   23348.55926098 -.00000126  00000-0  10141-4 0  9998,2 53540  53.2172 127.8722 0001261  93.4138 266.6998 15.08835786 73788,6917.893,95.438,540.631,538.886,0.0
53540.0,STARLINK-4486,PAYLOAD,2023-12-14 15:00:43,15.08837347,0.0001231,53.2175,127.5737,97.3192,262.794,1.7259e-05,-1.3e-07,0.0,0 STARLINK-4486,1 53540U 22101P   23348.62549965 -.00000013  00000-0  17259-4 0  9992,2 53540  53.2175 127.5737 0001231  97.3192 262.7940 15.08837347 73109,6917.888,95.438,540.605,538.902,0.0
53540.0,STARLINK-4486,PAYLOAD,2023-12-15 14:51:30,15.08837846,0.0001188,53.2174,123.1145,94.9103,265.2025,-8.8709e-05,-1.699e-05,0.0,0 STARLINK-4486,1 53540U 22101P   23349.61910760 -.00001699  00000-0 -88709-4 0  9997,2 53540  53.2174 123.1145 0001188  94.9103 265.2025 15.08837846 73947,6917.887,95.438,540.574,538.93,0.0
53540.0,STARLINK-4486,PAYLOAD,2023-12-15 16:26:54,15.08818622,0.0001334,53.2173,122.8174,99.2436,260.8707,0.00013979,1.936e-05,0.0,0 STARLINK-4486,1 53540U 22101P   23349.68535105  .00001936  00000-0  13979-3 0  9998,2 53540  53.2173 122.8174 0001334  99.2436 260.8707 15.08818622 73268,6917.946,95.439,540.734,538.888,0.0
53540.0,STARLINK-4486,PAYLOAD,2023-12-16 14:42:17,15.0882242,0.00012,53.2173,118.6549,96.836,263.2768,0.00031261,4.688e-05,0.0,0 STARLINK-4486,1 53540U 22101P   23350.61270433  .00004688  00000-0  31261-3 0  9994,2 53540  53.2173 118.6549 0001200  96.8360 263.2768 15.08822420 74095,6917.934,95.439,540.629,538.969,0.0
53540.0,STARLINK-4486,PAYLOAD,2023-12-16 16:17:40,15.08841537,0.0001505,53.2179,118.3584,64.7038,295.411,0.00011032,1.468e-05,0.0,0 STARLINK-4486,1 53540U 22101P   23350.67894292  .00001468  00000-0  11032-3 0  9992,2 53540  53.2179 118.3584 0001505  64.7038 295.4110 15.08841537 73414,6917.876,95.437,540.782,538.7,0.0
53540.0,STARLINK-4486,PAYLOAD,2023-12-17 14:33:04,15.0884107,0.0001281,53.2189,114.1928,85.8992,274.2147,4.9205e-05,4.95e-06,0.0,0 STARLINK-4486,1 53540U 22101P   23351.60630674  .00000495  00000-0  49205-4 0  9991,2 53540  53.2189 114.1928 0001281  85.8992 274.2147 15.08841070 74244,6917.877,95.437,540.628,538.856,0.0
53540.0,STARLINK-4486,PAYLOAD,2023-12-17 16:08:27,15.08839125,0.0001344,53.2194,113.8969,77.669,282.4452,0.00011882,1.604e-05,0.0,0 STARLINK-4486,1 53540U 22101P   23351.67254550  .00001604  00000-0  11882-3 0  9995,2 53540  53.2194 113.8969 0001344  77.6690 282.4452 15.08839125 74254,6917.883,95.438,540.678,538.818,0.0
53540.0,STARLINK-4486,PAYLOAD,2023-12-18 14:23:51,15.08852219,0.0001698,53.2186,109.7366,67.2477,292.8695,4.153e-05,3.73e-06,0.0,0 STARLINK-4486,1 53540U 22101P   23352.59989915  .00000373  00000-0  41530-4 0  9993,2 53540  53.2186 109.7366 0001698  67.2477 292.8695 15.08852219 74398,6917.843,95.437,540.883,538.533,0.0
53540.0,STARLINK-4486,PAYLOAD,2023-12-19 11:03:52,15.08841886,0.0001363,53.2184,105.8731,84.5933,275.5215,-1.3342e-05,-5e-06,0.0,0 STARLINK-4486,1 53540U 22101P   23353.46102551 -.00000500  00000-0 -13342-4 0  9997,2 53540  53.2184 105.8731 0001363  84.5933 275.5215 15.08841886 73839,6917.875,95.437,540.683,538.797,0.0
53540.0,STARLINK-4486,PAYLOAD,2023-12-19 14:14:38,15.08841736,0.0001379,53.2172,105.2819,85.9074,274.2075,-1.317e-06,-3.09e-06,0.0,0 STARLINK-4486,1 53540U 22101P   23353.59350535 -.00000309  00000-0 -13170-5 0  9995,2 53540  53.2172 105.2819 0001379  85.9074 274.2075 15.08841736 74548,6917.875,95.437,540.694,538.786,0.0
53540.0,STARLINK-4486,PAYLOAD,2023-12-20 10:54:40,15.08833484,0.0001264,53.2187,101.4158,87.2505,272.8632,-6.6721e-06,-3.94e-06,0.0,0 STARLINK-4486,1 53540U 22101P   23354.45463084 -.00000394  00000-0 -66721-5 0  9999,2 53540  53.2187 101.4158 0001264  87.2505 272.8632 15.08833484 73986,6917.9,95.438,540.64,538.891,0.0
53540.0,STARLINK-4486,PAYLOAD,2023-12-20 12:30:03,15.08843724,0.000139,53.2189,101.1193,80.1727,279.9422,-0.00010522,-1.962e-05,0.0,0 STARLINK-4486,1 53540U 22101P   23354.52086942 -.00001962  00000-0 -10522-3 0  9999,2 53540  53.2189 101.1193 0001390  80.1727 279.9422 15.08843724 74683,6917.869,95.437,540.696,538.772,0.0
53540.0,STARLINK-4486,PAYLOAD,2023-12-21 13:56:12,15.08843652,0.0001509,53.2191,96.3577,97.3719,262.7445,0.0001176,1.584e-05,0.0,0 STARLINK-4486,1 53540U 22101P   23355.58070299  .00001584  00000-0  11760-3 0  9997,2 53540  53.2191  96.3577 0001509  97.3719 262.7445 15.08843652 74843,6917.869,95.437,540.778,538.69,0.0
53540.0,STARLINK-4486,PAYLOAD,2023-12-22 12:11:37,15.08840123,0.0001285,53.2175,92.193,80.9764,279.1374,6.3496e-05,7.23e-06,0.0,0 STARLINK-4486,1 53540U 22101P   23356.50807021  .00000723  00000-0  63496-4 0  9999,2 53540  53.2175  92.1930 0001285  80.9764 279.1374 15.08840123 74293,6917.88,95.438,540.634,538.856,0.0
53540.0,STARLINK-4486,PAYLOAD,2023-12-23 12:02:25,15.08830701,0.0001689,53.2178,87.7285,134.8966,225.2163,-0.00014207,-2.548e-05,0.0,0 STARLINK-4486,1 53540U 22101P   23357.50168518 -.00002548  00000-0 -14207-3 0  9995,2 53540  53.2178  87.7285 0001689 134.8966 225.2163 15.08830701 74446,6917.909,95.438,540.942,538.605,0.0
53540.0,STARLINK-4486,PAYLOAD,2023-12-23 13:37:49,15.08827989,0.0001132,53.2178,87.4332,103.7992,256.3126,-0.00014921,-2.661e-05,0.0,0 STARLINK-4486,1 53540U 22101P   23357.56792957 -.00002661  00000-0 -14921-3 0  9990,2 53540  53.2178  87.4332 0001132 103.7992 256.3126 15.08827989 75149,6917.917,95.438,540.565,538.999,0.0
53540.0,STARLINK-4486,PAYLOAD,2023-12-23 16:48:35,15.08827352,0.0001102,53.2176,86.8391,101.3813,258.7303,-0.00015603,-2.769e-05,0.0,0 STARLINK-4486,1 53540U 22101P   23357.70041129 -.00002769  00000-0 -15603-3 0  9991,2 53540  53.2176  86.8391 0001102 101.3813 258.7303 15.08827352 75167,6917.919,95.438,540.546,539.022,0.0
53540.0,STARLINK-4486,PAYLOAD,2023-12-24 11:53:11,15.08852022,0.0001287,53.2173,83.27,92.4152,267.6987,0.00015663,2.207e-05,0.0,0 STARLINK-4486,1 53540U 22101P   23358.49527197  .00002207  00000-0  15663-3 0  9993,2 53540  53.2173  83.2700 0001287  92.4152 267.6987 15.08852022 74594,6917.844,95.437,540.599,538.818,0.0
53540.0,STARLINK-4486,PAYLOAD,2023-12-24 13:28:34,15.08853051,0.0001348,53.2174,82.9742,75.3649,284.7492,0.0001912,2.757e-05,0.0,0 STARLINK-4486,1 53540U 22101P   23358.56151107  .00002757  00000-0  19120-3 0  9997,2 53540  53.2174  82.9742 0001348  75.3649 284.7492 15.08853051 75298,6917.84,95.437,540.638,538.773,0.0
53540.0,STARLINK-4486,PAYLOAD,2023-12-24 15:03:57,15.08859043,0.000139,53.2188,82.6724,81.4478,278.6671,0.00019151,2.763e-05,0.0,0 STARLINK-4486,1 53540U 22101P   23358.62774593  .00002763  00000-0  19151-3 0  9995,2 53540  53.2188  82.6724 0001390  81.4478 278.6671 15.08859043 74618,6917.822,95.436,540.649,538.726,0.0
53540.0,STARLINK-4486,PAYLOAD,2023-12-25 11:43:58,15.0884231,0.0001387,53.2176,78.8117,91.5012,268.6139,0.00027451,4.084e-05,0.0,0 STARLINK-4486,1 53540U 22101P   23359.48887297  .00004084  00000-0  27451-3 0  9996,2 53540  53.2176  78.8117 0001387  91.5012 268.6139 15.08842310 74741,6917.873,95.437,540.698,538.779,0.0
53540.0,STARLINK-4486,PAYLOAD,2023-12-25 13:19:21,15.08848632,0.000121,53.2178,78.5145,94.9951,265.1179,0.00028396,4.235e-05,0.0,0 STARLINK-4486,1 53540U 22101P   23359.55510970  .00004235  00000-0  28396-3 0  9992,2 53540  53.2178  78.5145 0001210  94.9951 265.1179 15.08848632 75442,6917.854,95.437,540.556,538.882,0.0
53540.0,STARLINK-4486,PAYLOAD,2023-12-26 11:34:45,15.08852605,0.0001491,53.2191,74.3478,93.2925,266.8238,-9.1283e-05,-1.741e-05,0.0,0 STARLINK-4486,1 53540U 22101P   23360.48247683 -.00001741  00000-0 -91283-4 0  9991,2 53540  53.2191  74.3478 0001491  93.2925 266.8238 15.08852605 74891,6917.842,95.437,540.738,538.675,0.0
53540.0,STARLINK-4486,PAYLOAD,2023-12-27 11:25:32,15.08852115,0.0001393,53.2184,69.8887,89.9546,270.1605,-6.1965e-05,-1.274e-05,0.0,0 STARLINK-4486,1 53540U 22101P   23361.47607268 -.00001274  00000-0 -61965-4 0  9995,2 53540  53.2184  69.8887 0001393  89.9546 270.1605 15.08852115 75734,6917.843,95.437,540.672,538.745,0.0
53540.0,STARLINK-4486,PAYLOAD,2023-12-28 11:16:20,15.08838379,0.0001535,53.219,65.4282,109.7252,250.3906,4.6894e-05,4.58e-06,0.0,0 STARLINK-4486,1 53540U 22101P   23362.46967701  .00000458  00000-0  46894-4 0  9991,2 53540  53.2190  65.4282 0001535 109.7252 250.3906 15.08838379 75195,6917.885,95.438,540.812,538.688,0.0
